{
  "type": "FeatureCollection",
  "features": [
    {
      "type": "Feature",
      "properties": {
        "norad_id": 41860,
        "name": "GSAT0212 (GALILEO 16)",
        "group": "galileo",
        "lat": 52.41954772529601,
        "lon": -137.64227434847425,
        "alt_km": 23215.344940853716,
        "timestamp": "2025-12-19T20:43:00.348491+00:00",
        "meta_object_name": "GSAT0212 (GALILEO 16)",
        "meta_object_id": "2016-069B",
        "meta_epoch": "2025-12-18T12:25:48.697536",
        "meta_mean_motion": 1.70474692,
        "meta_eccentricity": 0.00020646,
        "meta_inclination": 55.3831,
        "meta_ra_of_asc_node": 106.0857,
        "meta_arg_of_pericenter": 21.766,
        "meta_mean_anomaly": 338.2025,
        "meta_ephemeris_type": 0,
        "meta_classification_type": "U",
        "meta_norad_cat_id": 41860,
        "meta_element_set_no": 999,
        "meta_rev_at_epoch": 5657,
        "meta_bstar": 0,
        "meta_mean_motion_dot": -8e-08,
        "meta_mean_motion_ddot": 0,
        "tle_line1": "1 41860U 16069B   25352.51792474 -.00000008  00000+0  00000+0 0  9994",
        "tle_line2": "2 41860  55.3831 106.0857 0002064  21.7660 338.2025  1.70474692 56573"
      },
      "geometry": {
        "type": "Point",
        "coordinates": [
          -137.64227434847425,
          52.41954772529601
        ]
      }
    },
    {
      "type": "Feature",
      "properties": {
        "norad_id": 41861,
        "name": "GSAT0213 (GALILEO 17)",
        "group": "galileo",
        "lat": -45.49353064601784,
        "lon": -29.386255493285258,
        "alt_km": 23221.626233568957,
        "timestamp": "2025-12-19T20:43:00.348502+00:00",
        "meta_object_name": "GSAT0213 (GALILEO 17)",
        "meta_object_id": "2016-069C",
        "meta_epoch": "2025-12-17T17:05:43.699776",
        "meta_mean_motion": 1.70474994,
        "meta_eccentricity": 0.000259,
        "meta_inclination": 55.385,
        "meta_ra_of_asc_node": 106.1156,
        "meta_arg_of_pericenter": 282.1972,
        "meta_mean_anomaly": 77.7328,
        "meta_ephemeris_type": 0,
        "meta_classification_type": "U",
        "meta_norad_cat_id": 41861,
        "meta_element_set_no": 999,
        "meta_rev_at_epoch": 5642,
        "meta_bstar": 0,
        "meta_mean_motion_dot": -9e-08,
        "meta_mean_motion_ddot": 0,
        "tle_line1": "1 41861U 16069C   25351.71231134 -.00000009  00000+0  00000+0 0  9998",
        "tle_line2": "2 41861  55.3850 106.1156 0002590 282.1972  77.7328  1.70474994 56421"
      },
      "geometry": {
        "type": "Point",
        "coordinates": [
          -29.386255493285258,
          -45.49353064601784
        ]
      }
    },
    {
      "type": "Feature",
      "properties": {
        "norad_id": 41862,
        "name": "GSAT0214 (GALILEO 18)",
        "group": "galileo",
        "lat": 23.945139757803233,
        "lon": -91.7967467303757,
        "alt_km": 23222.630729934885,
        "timestamp": "2025-12-19T20:43:00.348514+00:00",
        "meta_object_name": "GSAT0214 (GALILEO 18)",
        "meta_object_id": "2016-069D",
        "meta_epoch": "2025-12-17T20:35:58.649280",
        "meta_mean_motion": 1.70474854,
        "meta_eccentricity": 0.00015422,
        "meta_inclination": 55.383,
        "meta_ra_of_asc_node": 106.1044,
        "meta_arg_of_pericenter": 289.1766,
        "meta_mean_anomaly": 70.7658,
        "meta_ephemeris_type": 0,
        "meta_classification_type": "U",
        "meta_norad_cat_id": 41862,
        "meta_element_set_no": 999,
        "meta_rev_at_epoch": 5655,
        "meta_bstar": 0,
        "meta_mean_motion_dot": -9e-08,
        "meta_mean_motion_ddot": 0,
        "tle_line1": "1 41862U 16069D   25351.85831770 -.00000009  00000+0  00000+0 0  9996",
        "tle_line2": "2 41862  55.3830 106.1044 0001542 289.1766  70.7658  1.70474854 56558"
      },
      "geometry": {
        "type": "Point",
        "coordinates": [
          -91.7967467303757,
          23.945139757803233
        ]
      }
    },
    {
      "type": "Feature",
      "properties": {
        "norad_id": 43055,
        "name": "GSAT0215 (GALILEO 19)",
        "group": "galileo",
        "lat": -23.90089208180804,
        "lon": 64.44506770288523,
        "alt_km": 23227.99537121177,
        "timestamp": "2025-12-19T20:43:00.348525+00:00",
        "meta_object_name": "GSAT0215 (GALILEO 19)",
        "meta_object_id": "2017-079A",
        "meta_epoch": "2025-12-18T08:21:56.206080",
        "meta_mean_motion": 1.70474068,
        "meta_eccentricity": 0.00012335,
        "meta_inclination": 55.1282,
        "meta_ra_of_asc_node": 226.4832,
        "meta_arg_of_pericenter": 345.8587,
        "meta_mean_anomaly": 14.2435,
        "meta_ephemeris_type": 0,
        "meta_classification_type": "U",
        "meta_norad_cat_id": 43055,
        "meta_element_set_no": 999,
        "meta_rev_at_epoch": 4990,
        "meta_bstar": 0,
        "meta_mean_motion_dot": 6.2e-07,
        "meta_mean_motion_ddot": 0,
        "tle_line1": "1 43055U 17079A   25352.34856720  .00000062  00000+0  00000+0 0  9999",
        "tle_line2": "2 43055  55.1282 226.4832 0001233 345.8587  14.2435  1.70474068 49906"
      },
      "geometry": {
        "type": "Point",
        "coordinates": [
          64.44506770288523,
          -23.90089208180804
        ]
      }
    },
    {
      "type": "Feature",
      "properties": {
        "norad_id": 43056,
        "name": "GSAT0216 (GALILEO 20)",
        "group": "galileo",
        "lat": 24.847884027372434,
        "lon": -114.71689700577775,
        "alt_km": 23216.519954978732,
        "timestamp": "2025-12-19T20:43:00.348537+00:00",
        "meta_object_name": "GSAT0216 (GALILEO 20)",
        "meta_object_id": "2017-079B",
        "meta_epoch": "2025-12-16T21:07:19.515072",
        "meta_mean_motion": 1.70474167,
        "meta_eccentricity": 0.00024195,
        "meta_inclination": 55.129,
        "meta_ra_of_asc_node": 226.5236,
        "meta_arg_of_pericenter": 322.2527,
        "meta_mean_anomaly": 37.829,
        "meta_ephemeris_type": 0,
        "meta_classification_type": "U",
        "meta_norad_cat_id": 43056,
        "meta_element_set_no": 999,
        "meta_rev_at_epoch": 4989,
        "meta_bstar": 0,
        "meta_mean_motion_dot": 5.3e-07,
        "meta_mean_motion_ddot": 0,
        "tle_line1": "1 43056U 17079B   25350.88008698  .00000053  00000+0  00000+0 0  9990",
        "tle_line2": "2 43056  55.1290 226.5236 0002419 322.2527  37.8290  1.70474167 49893"
      },
      "geometry": {
        "type": "Point",
        "coordinates": [
          -114.71689700577775,
          24.847884027372434
        ]
      }
    },
    {
      "type": "Feature",
      "properties": {
        "norad_id": 43057,
        "name": "GSAT0217 (GALILEO 21)",
        "group": "galileo",
        "lat": -52.52848113904851,
        "lon": 111.85133397573007,
        "alt_km": 23228.183919850875,
        "timestamp": "2025-12-19T20:43:00.348548+00:00",
        "meta_object_name": "GSAT0217 (GALILEO 21)",
        "meta_object_id": "2017-079C",
        "meta_epoch": "2025-12-17T16:29:50.691264",
        "meta_mean_motion": 1.70474088,
        "meta_eccentricity": 0.00027909,
        "meta_inclination": 55.1268,
        "meta_ra_of_asc_node": 226.4994,
        "meta_arg_of_pericenter": 347.0606,
        "meta_mean_anomaly": 13.035,
        "meta_ephemeris_type": 0,
        "meta_classification_type": "U",
        "meta_norad_cat_id": 43057,
        "meta_element_set_no": 999,
        "meta_rev_at_epoch": 4989,
        "meta_bstar": 0,
        "meta_mean_motion_dot": 5.8e-07,
        "meta_mean_motion_ddot": 0,
        "tle_line1": "1 43057U 17079C   25351.68739226  .00000058  00000+0  00000+0 0  9993",
        "tle_line2": "2 43057  55.1268 226.4994 0002790 347.0606  13.0350  1.70474088 49899"
      },
      "geometry": {
        "type": "Point",
        "coordinates": [
          111.85133397573007,
          -52.52848113904851
        ]
      }
    },
    {
      "type": "Feature",
      "properties": {
        "norad_id": 43058,
        "name": "GSAT0218 (GALILEO 22)",
        "group": "galileo",
        "lat": 45.09386293409548,
        "lon": 2.0858722672196546,
        "alt_km": 23225.5011247649,
        "timestamp": "2025-12-19T20:43:00.348576+00:00",
        "meta_object_name": "GSAT0218 (GALILEO 22)",
        "meta_object_id": "2017-079D",
        "meta_epoch": "2025-12-17T21:46:41.589984",
        "meta_mean_motion": 1.70474188,
        "meta_eccentricity": 0.00029691,
        "meta_inclination": 55.1269,
        "meta_ra_of_asc_node": 226.4911,
        "meta_arg_of_pericenter": 304.5931,
        "meta_mean_anomaly": 55.4827,
        "meta_ephemeris_type": 0,
        "meta_classification_type": "U",
        "meta_norad_cat_id": 43058,
        "meta_element_set_no": 999,
        "meta_rev_at_epoch": 4992,
        "meta_bstar": 0,
        "meta_mean_motion_dot": 5.9e-07,
        "meta_mean_motion_ddot": 0,
        "tle_line1": "1 43058U 17079D   25351.90742581  .00000059  00000+0  00000+0 0  9998",
        "tle_line2": "2 43058  55.1269 226.4911 0002969 304.5931  55.4827  1.70474188 49921"
      },
      "geometry": {
        "type": "Point",
        "coordinates": [
          2.0858722672196546,
          45.09386293409548
        ]
      }
    }
  ]
}